ISo3,Country,CampName,BoreholeID,LocalBoreholeID,Latitude,Longitude,Elevation_m,Status,DrillDate,Depth_m,WaterLevelBelowGround_m,PumpType,PumpBrand,PumpDepth_m,DrillerYield_m3/hr,PumpingTime_hr/day,LastWaterQualityControl,Comments,record_start,record_end,npersons_per_pump,npersons_per_water_tap,nliters_per_person_day,npersons_per_toilet,npersons_per_shower,npersons_per_hygiene_promoter,refugee_pop
UGA,Uganda,Rhino Camp,UGA-UGAs990099-006,Unknown,3.04866,32.31188,651,active,15-4-2014,NA,NA,hand_pump,NA,NA,0.8,8,25-11-2016,"BH located at the edge of the bottom land, road doesn't go any further south here, no outcrops",9/2/2019,9/29/2019,229,278,25,7,17,777,111221
NPL,Nepal,Beldangi,NPL-NPLs001252-005,Unknown,26.710003,87.696017,172,active,31-12-1991,65,NA,electrical_pump,NA,NA,NA,NA,NA,NA,7/1/2019,7/28/2019,186,20,32,NA,NA,NA,5806
UGA,Uganda,Kyangwali,UGA-UGAs990142-060,Unknown,1.16657,30.75756,1149,active,NA,NA,NA,hand_pump,NA,NA,1.27,NA,NA,Functional,10/29/2018,12/2/2018,NA,NA,NA,NA,NA,NA,NA
TCD,Chad,Dosseye,TCD-TCDs003104-007,Unknown,8.16305556,16.48472222,NA,active,NA,NA,NA,hand_pump,Vergnet HPV60,NA,NA,NA,NA,NA,12/3/2018,12/30/2018,403,NA,29,6,5,2019,16156
UGA,Uganda,Nakivale,UGA-UGAs001945-026,Unknown,0.81633333,30.88744444,1254,active,1/1/2010,10,NA,NA,NA,NA,0.54,12,NA,F,6/3/2019,6/30/2019,3303,825,17,6,11,9911,89207
UGA,Uganda,Sweswe dam II,UGA--048,Unknown,0.35041667,31.09988889,NA,active,1/1/2005,4,1.25,hand_pump,India mark II,3,1.4,12,20-7-2015,NA,NA,NA,NA,NA,NA,NA,NA,NA,NA
ETH,Ethiopia,Sherkole,ETH-ETHs000167-001,Unknown,10.384672,34.59689438,1243,active,6/6/2006,98,3,electrical_pump,STAC/S4/38,74,9.72,4,NA,NA,3/4/2019,3/31/2019,NA,111,22,7,5,612,11017
ETH,Ethiopia,Shimelba,ETH-ETHs003014-001,Unknown,14.194463,37.702527859999996,989,active,NA,57,10,electrical_pump,STAC/VS19-45,42,28.8,8,NA,NA,2/4/2019,3/3/2019,NA,94,23,7,35,458,7337
ETH,Ethiopia,Tongo,ETH-ETHs004111-001,Unknown,9.36129444,34.44263333,1695,active,24-8-2012,88,NA,electrical_pump,NA,53,504,11,NA,NA,2/4/2019,3/3/2019,NA,180,13,9,5,872,12219
ETH,Ethiopia,Hitsats,ETH-ETHs004634-001,Unknown,14.11882,37.98509422,1060,active,1/6/2014,97,4.5,NA,NA,87,5.4,8,NA,NA,7/29/2019,9/1/2019,6794,98,12,11,11,679,13588
KEN,Kenya,Dagahaley,KEN-KENs001088-001,Unknown,0.19055556,40.27736111,127,active,26-10-2009,171,112.98,electrical_pump,Grundfos SP30-21,146.2,36,12,NA,NA,1/1/2017,12/31/2017,NA,NA,NA,NA,NA,NA,NA
KEN,Kenya,Kakuma,KEN-KENs001093-001,Unknown,3.73275,34.82013333,593,active,1/1/2014,121,18.3,electrical_pump,NA,NA,8.7,NA,NA,n/a-SALINE,4/29/2019,6/2/2019,NA,106,21,16,NA,4665,186622
NER,Niger,Tabareybarey,NER-NERs004466-001,Unknown,14.77502778,0.95558333,252,inactive,1/1/2012,NA,NA,hand_pump,Vergnet PHV60,NA,0.4,24,NA,Screen Type: PVC,1/1/2018,12/31/2018,NA,NA,NA,NA,NA,NA,NA
UGA,Uganda,Baratku,UGA-UGAs001954-002,Unknown,3.47669444,31.8865,NA,active,10/2/2014,67,19.37,NA,NA,54,NA,NA,NA,NA,NA,NA,NA,NA,NA,NA,NA,NA,NA
TCD,Chad,Bredjing,TCD-TCDs002889-001,Unknown,13.47752778,21.68552778,716,active,16-6-2004,12,3.5,electrical_pump,GRUNDFOS SP8A-18,NA,12,14,28-1-2016,NA,1/1/2018,12/31/2018,NA,NA,NA,NA,NA,NA,NA
TCD,Chad,Ourecassoni,TCD-TCDs002894-001,Unknown,16.15627778,23.12941667,731,NA,27-5-2010,46,11.98,hand_pump,Vergnet HPV60,NA,5,10,NA,NA,NA,NA,NA,NA,NA,NA,NA,NA,NA
TCD,Chad,Dosseye,TCD-TCDs003104-001,Unknown,8.16055556,16.47861111,NA,active,NA,NA,NA,hand_pump,Vergnet HPV60,NA,NA,NA,NA,NA,10/29/2018,12/2/2018,404,NA,29,6,6,2022,16182
TCD,Chad,Doholo,TCD-TCDs007759-001,Unknown,7.59197,16.3733,417,active,4/11/2014,47,14.1,hand_pump,Vergnet HPV60,20,5.7,NA,NA,NA,12/3/2018,12/30/2018,554,NA,28,6,6,1330,6653
UGA,Uganda,Nakivale,UGA-UGAs001945-001,Unknown,0.85802778,30.85438889,1276,active,1/1/2009,70,42.24,NA,NA,NA,0.5,12,NA,NA,6/3/2019,6/30/2019,3303,825,17,6,11,9911,89207
UGA,Uganda,Kiryandongo settlement,UGA-UGAs002378-001,Unknown,1.94286111,32.1595,1111,active,NA,NA,26,electrical_pump,Tormac Model TS100-8-34,41.4,7.26,8,NA,under motorisation,NA,NA,NA,NA,NA,NA,NA,NA,NA
ETH,Ethiopia,Sherkole,ETH-ETHs000167-002,Unknown,10.308608,34.62982443,1372,active,1/7/2012,99,6.86,electrical_pump,STAC/S4-4,76,16.92,12,NA,NA,3/4/2019,3/31/2019,NA,111,22,7,5,612,11017
ETH,Ethiopia,Shimelba,ETH-ETHs003014-002,Unknown,14.156753,37.71495254,1039,active,NA,60,16,electrical_pump,STAC/S2-31,49,8.64,4,NA,NA,12/31/2018,2/3/2019,NA,91,27,7,34,444,7110
ETH,Ethiopia,Bambasi,ETH-ETHs004591-002,Unknown,9.76955,34.77681667,1358,active,10/6/2012,104,2.14,electrical_pump,Submersible,76.3,23.04,10.5,NA,NA,12/31/2018,2/3/2019,NA,50,13,6,407,1167,17516
ETH,Ethiopia,Tsore,ETH-ETHs008604-002,Unknown,10.236644,34.61675915,1525,active,15-9-2015,100,3.17,electrical_pump,STAC VS25/23,45,43.2,6.25,NA,NA,NA,NA,NA,NA,NA,NA,NA,NA,NA
KEN,Kenya,Dagahaley,KEN-KENs001088-002,Unknown,0.1775,40.27944444,125,active,29-10-2011,196,112.12,electrical_pump,Grundfos SP46-20,170,50,10,NA,NA,1/1/2017,12/31/2017,NA,NA,NA,NA,NA,NA,NA
KEN,Kenya,Kakuma,KEN-KENs001093-002,Unknown,3.7777,34.82913333,586,active,1/1/2014,100,11,electrical_pump,SP 46-12,66,60,NA,NA,Kakuma 4,4/29/2019,6/2/2019,NA,106,21,16,NA,4665,186622
NER,Niger,Abala,NER-NERs001259-002,Unknown,14.91808333,3.42127778,234,active,1/1/2015,174,NA,electrical_pump,"Grundfos, SQFlex",NA,5,5,23-6-2015,Screen Type: PVC. Screen length: 25m.,1/1/2018,12/31/2018,NA,NA,NA,NA,NA,NA,NA
TCD,Chad,Farchana,TCD-TCDs002655-002,Unknown,13.59648889,21.79344722,824,inactive,19-12-2009,70,NA,NA,NA,NA,NA,NA,NA,NA,12/3/2018,12/30/2018,NA,157,11,8,7,4221,29552
TCD,Chad,Iridimi,TCD-TCDs002891-002,Unknown,15.19858333,22.20136111,NA,NA,NA,59,17.5,hand_pump,Vergnet HPV60,NA,2.5,10,NA,NA,12/3/2018,12/30/2018,NA,163,14,12,12,3437,20624
TCD,Chad,Dosseye,TCD-TCDs003104-002,Unknown,8.16305556,16.47944444,NA,active,NA,NA,NA,hand_pump,Vergnet HPV60,NA,NA,NA,NA,NA,1/1/2018,12/31/2018,NA,NA,NA,NA,NA,NA,NA
TCD,Chad,Doholo,TCD-TCDs007759-002,Unknown,7.59471,16.37536,413,active,8/11/2014,43,6.4,hand_pump,Vergnet HPV60,20,6,NA,NA,NA,4/1/2019,4/28/2019,620,NA,27,6,5,1137,6822
TCD,Chad,Dar Es Salam,TCD-TCDs080005-002,Unknown,13.61983333,14.3,NA,active,NA,25,NA,hand_pump,India Mark II,20,NA,13,NA,NA,1/1/2017,12/31/2017,NA,NA,NA,NA,NA,NA,NA
UGA,Uganda,Nakivale,UGA-UGAs001945-002,Unknown,0.85722222,30.85763889,1285,active,1/1/2008,12,NA,NA,NA,NA,NA,12,NA,NA,7/1/2019,7/28/2019,3303,NA,18,6,11,9911,89207
UGA,Uganda,Ayilo,UGA-UGAs004662-002,Unknown,3.28536111,31.92897222,737,active,11/4/2014,51,NA,hand_pump,NA,21,2,NA,NA,NA,NA,NA,NA,NA,NA,NA,NA,NA,NA
ETH,Ethiopia,Sherkole,ETH-ETHs000167-003,Unknown,10.310183,34.63485389,1380,inactive,12/11/2012,102,8,electrical_pump,STAC/VS19-45,78,12.24,6,NA,NA,4/1/2019,4/28/2019,NA,93,19,7,5,612,11017
ETH,Ethiopia,Shimelba,ETH-ETHs003014-003,Unknown,14.15951,37.73703275,1032,active,NA,56,10,electrical_pump,STAC/S4-4,52,6.48,4,NA,NA,2/4/2019,3/3/2019,NA,94,23,7,35,458,7337
ETH,Ethiopia,Bambasi,ETH-ETHs004591-003,Unknown,9.76601667,34.78008333,1347,active,5/1/2005,97.5,2,electrical_pump,Grundfos Submersible,80,18,10.5,NA,NA,2/4/2019,3/3/2019,NA,64,15,6,407,1167,17516
ETH,Ethiopia,Hitsats,ETH-ETHs004634-003,Unknown,14.134915,37.92952156,1035,active,20-11-2013,115,11,electrical_pump,Dynatech/DT13-30,84,8.28,13,NA,NA,1/1/2017,12/31/2017,NA,NA,NA,NA,NA,NA,NA
KEN,Kenya,Dagahaley,KEN-KENs001088-003,Unknown,0.1925,40.28361111,125,active,6/11/2010,180,113.24,electrical_pump,Grundfos SP46-20,158.2,47,9,NA,NA,1/1/2015,12/31/2015,NA,NA,NA,NA,NA,NA,NA
KEN,Kenya,Kakuma,KEN-KENs001093-003,Unknown,3.77758333,34.82916667,587,active,1/1/2004,58,8.77,electrical_pump,SP 30-13,55,32.1,NA,NA,Kakuma 3 - Nasibunda and clinic six tanks.,4/1/2019,4/28/2019,NA,105,19,17,NA,4634,185399
MLI,Mali,Gao - Tilatane,MLI-MLIs001121-003,Unknown,16.21222222,-0.51222222,NA,active,15-10-2015,75,53.73,hand_pump,PMH India,62,1.5,12,12/2/2015,Rehabilitation UNHCR,NA,NA,NA,NA,NA,NA,NA,NA,NA
NER,Niger,Tabareybarey,NER-NERs004466-003,Unknown,14.77936111,0.95908333,253,inactive,1/1/2013,80,NA,hand_pump,Vergnet PHV60,NA,0.4,24,NA,Non operationnel. Screen Type: PVC.,2/4/2019,3/3/2019,NA,199,15,29,53,NA,10551
UGA,Uganda,Ayilo,UGA-UGAs004662-003,Unknown,3.28063889,31.92986111,730,active,20-4-2014,54,NA,hand_pump,NA,21,1.5,NA,NA,NA,NA,NA,NA,NA,NA,NA,NA,NA,NA
TCD,Chad,Bredjing,TCD-TCDs002889-003,Unknown,13.47802778,21.70227778,715,active,6/12/2004,11,3.6,electrical_pump,GRUNDFOS SP14A-30,8,30,14,28-1-2016,NA,1/1/2018,12/31/2018,NA,NA,NA,NA,NA,NA,NA
TCD,Chad,Dosseye,TCD-TCDs003104-003,Unknown,8.16166667,16.48027778,NA,active,NA,NA,NA,hand_pump,Vergnet HPV60,NA,NA,NA,NA,NA,1/1/2018,12/31/2018,NA,NA,NA,NA,NA,NA,NA
TCD,Chad,Doholo,TCD-TCDs007759-003,Unknown,7.59664,16.37621,426,active,27-10-2014,50,5.1,hand_pump,Vergnet HPV60,20,6.8,NA,NA,NA,4/1/2019,4/28/2019,620,NA,27,6,5,1137,6822
TCD,Chad,Dar Es Salam,TCD-TCDs080005-003,Unknown,13.61708333,14.30022222,NA,active,NA,25,NA,hand_pump,India Mark II,20,NA,13,NA,NA,1/1/2017,12/31/2017,NA,NA,NA,NA,NA,NA,NA
UGA,Uganda,Nakivale,UGA-UGAs001945-003,Unknown,0.85225,30.86186111,1268,active,1/1/2008,30,NA,NA,NA,NA,NA,12,NA,NA,3/4/2019,3/31/2019,2973,825,17,4,20,336,89207
UGA,Uganda,Kyangwali,UGA-UGAs990142-003,Unknown,1.19284,30.78083,1162,active,NA,NA,NA,electrical_pump,Grundfos/Centrifugal,NA,2.5,18,NA,Functional,10/29/2018,12/2/2018,NA,NA,NA,NA,NA,NA,NA
ETH,Ethiopia,Hitsats,ETH-ETHs004634-004,Unknown,14.103846,37.95914098,1074,active,NA,39,7,electrical_pump,GRUNDFORS/SPQA-50,36,7.2,13,NA,NA,3/4/2019,3/31/2019,NA,98,11,12,11,681,13637
KEN,Kenya,Dagahaley,KEN-KENs001088-004,Unknown,0.20166667,40.2875,124,active,10/10/2013,175,112,electrical_pump,Grundfos SP46-20,156,50,9,NA,NA,1/1/2017,12/31/2017,NA,NA,NA,NA,NA,NA,NA
KEN,Kenya,Kakuma,KEN-KENs001093-004,Unknown,3.77503333,34.83031667,587,active,1/1/2004,70,6.17,electrical_pump,SP 30-13,48,31.2,NA,NA,Kakuma 3 Nasibunda tanks.,4/29/2019,6/2/2019,NA,106,21,16,NA,4665,186622
TCD,Chad,Farchana,TCD-TCDs002655-004,Unknown,13.58230556,21.82325,896,inactive,1/1/2011,35,10.39,NA,NA,NA,10.16,NA,NA,NA,1/1/2018,12/31/2018,NA,NA,NA,NA,NA,NA,NA
TCD,Chad,Gaga,TCD-TCDs002988-004,Unknown,13.78638889,21.45722222,715,active,4/7/2005,27,4.8,electrical_pump,GRUNDFOS SP14A-30/Grundfos SP14A10 <br><br>,NA,12,15,14-1-2016,NA,1/1/2018,12/31/2018,NA,NA,NA,NA,NA,NA,NA
TCD,Chad,Belom,TCD-TCDs004478-004,Unknown,8.2785,18.45279,411,active,3/10/2012,48.5,5.25,hand_pump,Vergnet HPV60,35,2.1,NA,NA,NA,1/1/2018,12/31/2018,NA,NA,NA,NA,NA,NA,NA
TCD,Chad,Dar Es Salam,TCD-TCDs080005-004,Unknown,13.62472222,14.30022222,NA,active,NA,25,NA,hand_pump,India Mark II,20,NA,13,NA,NA,4/1/2019,4/28/2019,472,NA,25,24,26,2047,12287
UGA,Uganda,Nakivale,UGA-UGAs001945-004,Unknown,0.80375,30.87425,1253,active,1/1/2009,10,NA,NA,NA,NA,0.648,12,NA,F,7/29/2019,9/1/2019,876,564,18,5,17,341,86293
UGA,Uganda,Kiryandongo settlement,UGA-UGAs002378-004,Unknown,1.93180556,32.15086111,1099,active,NA,NA,NA,hand_pump,U2,44.4,12.16901408,12,NA,NA,NA,NA,NA,NA,NA,NA,NA,NA,NA
KEN,Kenya,Dagahaley,KEN-KENs001088-005,Unknown,0.1875,40.30083333,124,active,26-10-2011,183,110.35,electrical_pump,Grundfos SP46-20,170,50,10.7,NA,NA,1/1/2018,12/31/2018,NA,NA,NA,NA,NA,NA,NA
KEN,Kenya,Kakuma,KEN-KENs001093-005,Unknown,3.77046667,34.83045,587,active,1/1/2004,60,6.98,electrical_pump,SP 8A -15,54,22.2,NA,NA,Reception center tank - Kakuma 3 zones 1 and 2,6/3/2019,6/30/2019,NA,106,19,16,NA,3659,186622
TCD,Chad,Bredjing,TCD-TCDs002889-005,Unknown,13.47783333,21.70180556,716,inactive,NA,NA,NA,NA,NA,NA,NA,NA,NA,NA,10/29/2018,12/2/2018,NA,221,14,11,10,4705,47059
TCD,Chad,Doholo,TCD-TCDs007759-005,Unknown,8.00031,16.37858,428,active,27-11-2014,50.5,6.3,hand_pump,Vergnet HPV60,20,5.3,NA,NA,NA,12/3/2018,12/30/2018,554,NA,28,6,6,1330,6653
UGA,Uganda,Nakivale,UGA-UGAs001945-005,Unknown,0.80288889,30.87502778,1254,active,1/1/2010,10,NA,NA,NA,NA,0.864,12,NA,F,12/31/2018,2/3/2019,3254,904,15,5,22,368,97645
UGA,Uganda,Kyangwali,UGA-UGAs990142-005,Unknown,1.21194444,30.80166667,1156,active,NA,NA,NA,electrical_pump,Grundfos/Centrifugal,NA,3,4,NA,Functional,11/26/2018,12/2/2018,749,NA,14,NA,NA,NA,86220
ETH,Ethiopia,Adiharush,ETH-ETHs004073-006,Unknown,13.571709,38.16168807,1343,active,15-6-2013,165.1,34,electrical_pump,CAPARARI/E6X35/26,158,12.6,9,NA,NA,NA,NA,NA,NA,NA,NA,NA,NA,NA
KEN,Kenya,Hagadera,KEN-KENs001089-006,Unknown,0.00527778,40.37480556,122,active,27-9-2010,153,109.44,electrical_pump,Grundfos SP46-20,134,42,9.9,NA,NA,6/3/2019,6/30/2019,NA,95,23,5,NA,1989,79560
KEN,Kenya,Kakuma,KEN-KENs001093-006,Unknown,3.77115,34.83073333,591,active,1/6/2015,85,9.85,electrical_pump,not yet installed,NA,16,NA,NA,Anticipated to serve Kakum 3. To be commisioned.,2/4/2019,3/3/2019,NA,105,19,17,NA,4634,185399
TCD,Chad,Bredjing,TCD-TCDs002889-006,Unknown,13.47791667,21.70180556,716,inactive,NA,NA,NA,NA,NA,NA,NA,NA,NA,NA,1/1/2018,12/31/2018,NA,NA,NA,NA,NA,NA,NA
TCD,Chad,Belom,TCD-TCDs004478-006,Unknown,8.26595,18.45527,407,active,3/2/2013,45,6.6,hand_pump,Vergnet HPV60,30,2.3,NA,NA,NA,4/1/2019,4/28/2019,538,NA,29,6,6,2573,23157
TCD,Chad,Dar Es Salam,TCD-TCDs080005-006,Unknown,13.61527778,14.30216667,NA,active,NA,25,NA,hand_pump,India Mark II,20,NA,13,NA,NA,7/29/2019,9/1/2019,410,NA,30,21,20,2457,12287
UGA,Uganda,Nakivale,UGA-UGAs001945-006,Unknown,0.83180556,30.88727778,1263,active,1/1/2008,70,47.68,NA,NA,NA,NA,12,NA,NA,7/29/2019,9/1/2019,876,564,18,5,17,341,86293
UGA,Uganda,Kiryandongo settlement,UGA-UGAs002378-006,Unknown,1.94563889,32.151,1092,active,NA,NA,NA,hand_pump,U2,38.4,15.3,12,NA,NA,NA,NA,NA,NA,NA,NA,NA,NA,NA
KEN,Kenya,Dagahaley,KEN-KENs001088-007,Unknown,0.18777778,40.28638889,126,active,9/11/2010,180,113.24,electrical_pump,Grundfos SP46-20,157,55,9,NA,NA,6/3/2019,6/30/2019,NA,90,27,7,NA,1885,75415
KEN,Kenya,Hagadera,KEN-KENs001089-007,Unknown,0.00838889,40.37626111,122,active,24-9-2011,175,113.68,electrical_pump,Grundfos SP46-20,151,46,10.9,NA,NA,7/1/2019,7/28/2019,NA,95,22,5,NA,1987,79511
KEN,Kenya,Kakuma,KEN-KENs001093-007,Unknown,3.74833333,34.83235,591,active,1/1/1994,45,8.21,electrical_pump,SP 8A-15,18,12.9,NA,NA,Kakuma 2 ZONE 2-Fuji tank. Anjellina Jolie and Moneau Shapel schools.,3/4/2019,3/31/2019,NA,105,19,17,NA,4634,185399
TCD,Chad,Farchana,TCD-TCDs002655-007,Unknown,13.58197222,21.81997222,896,active,1/5/2004,35,10.39,electrical_pump,Grundfos SP14A18,23.1,10.16,10,NA,NA,4/1/2019,4/28/2019,NA,557,14,8,7,4298,30088
TCD,Chad,Dar Es Salam,TCD-TCDs080005-007,Unknown,13.61986111,14.30261111,NA,active,NA,25,17.98,hand_pump,India Mark II,20,1.37,13,NA,NA,4/1/2019,4/28/2019,472,NA,25,24,26,2047,12287
UGA,Uganda,Nakivale,UGA-UGAs001945-007,Unknown,0.83180556,30.88730556,1278,active,1/1/2010,100,NA,NA,NA,NA,1.224,12,NA,F  has high yield,7/1/2019,7/28/2019,3303,NA,18,6,11,9911,89207
UGA,Uganda,Nyumanzi,UGA-UGAs004630-007,Unknown,3.46525,31.94727778,642,active,6/3/2014,51,8.2,NA,NA,NA,2,NA,NA,NA,NA,NA,NA,NA,NA,NA,NA,NA,NA
KEN,Kenya,Kakuma,KEN-KENs001093-008,Unknown,3.76201667,34.83418333,598,active,1/1/2012,30,NA,electrical_pump,NA,NA,NA,NA,NA,Not functional. Replaced.,7/29/2019,9/1/2019,NA,106,19,17,NA,3719,189692
TCD,Chad,Farchana,TCD-TCDs002655-008,Unknown,13.60266667,21.77949722,828,active,15-12-2009,70,8.91,hand_pump,Vergnet HPV60,43,2,NA,NA,NA,1/1/2018,12/31/2018,NA,NA,NA,NA,NA,NA,NA
TCD,Chad,Dar Es Salam,TCD-TCDs080005-008,Unknown,13.61977778,14.30277778,NA,active,NA,24,NA,hand_pump,India Mark II,20,NA,13,NA,NA,12/31/2018,2/3/2019,NA,NA,10,53,94,NA,3500
UGA,Uganda,Nakivale,UGA-UGAs001945-008,Unknown,0.84183333,30.93094444,1322,active,1/1/2009,70,NA,NA,NA,NA,NA,12,NA,NA,6/3/2019,6/30/2019,3303,825,17,6,11,9911,89207
UGA,Uganda,Ayilo 1,UGA-UGAs004662-008,Unknown,3.29533333,31.93986111,756,active,30-3-2014,78.3,5.82,hand_pump,U2,72,0.85,12,NA,NA,NA,NA,NA,NA,NA,NA,NA,NA,NA
KEN,Kenya,Kakuma,KEN-KENs001093-009,Unknown,3.76203333,34.83428333,592,active,1/1/2015,60,13,electrical_pump,SP 30-13,66,36,NA,NA,Kakuma 2 zone 1. zone 2-IOM and Block 3 Tanks.,12/31/2018,2/3/2019,NA,107,20,17,NA,4712,188513
TCD,Chad,Farchana,TCD-TCDs002655-009,Unknown,13.59675833,21.78148889,823,active,3/12/2009,67.17,14.17,hand_pump,Vergnet HPV60,38,5.2,NA,NA,NA,7/29/2019,9/1/2019,NA,386,13,8,7,4298,30088
TCD,Chad,Belom,TCD-TCDs004478-009,Unknown,8.2694,18.457,402,active,21-10-2012,45,4.35,hand_pump,Vergnet HPV60,NA,2.3,NA,NA,NA,7/29/2019,9/1/2019,539,NA,29,7,6,4631,23157
TCD,Chad,Dar Es Salam,TCD-TCDs080005-009,Unknown,13.62480556,14.30283333,NA,active,NA,25,17.3,hand_pump,India Mark II,20,1.42,13,NA,NA,12/3/2018,12/30/2018,424,NA,27,16,22,637,7648
UGA,Uganda,Nakivale,UGA-UGAs001945-009,Unknown,0.84055556,30.93313889,1289,active,1/1/2009,70,NA,NA,NA,NA,NA,12,NA,NA,3/4/2019,3/31/2019,2973,825,17,4,20,336,89207
UGA,Uganda,Kyangwali,UGA-UGAs990142-009,Unknown,1.13404,30.71327,1098,active,22-9-2014,NA,NA,hand_pump,NA,NA,1.137,NA,NA,Functional,12/17/2018,12/23/2018,749,NA,14,12,NA,749,86220
TCD,Chad,Dosseye,TCD-TCDs003104-010,Unknown,8.165,16.48638889,NA,active,NA,NA,NA,hand_pump,Vergnet HPV60,NA,NA,NA,NA,NA,10/29/2018,12/2/2018,404,NA,29,6,6,2022,16182
TCD,Chad,Dar Es Salam,TCD-TCDs080005-010,Unknown,13.61341667,14.30322222,NA,active,NA,25,NA,hand_pump,India Mark II,NA,NA,NA,NA,NA,12/31/2018,2/3/2019,NA,NA,20,28,54,NA,4627
UGA,Uganda,Nakivale,UGA-UGAs001945-010,Unknown,0.84444444,30.93372222,1283,active,1/1/2011,70,NA,NA,NA,NA,NA,12,NA,NA,4/29/2019,6/2/2019,2973,825,17,4,18,352,89207
UGA,Uganda,Kyangwali,UGA-UGAs990142-010,Unknown,1.13956,30.71542,1120,active,20-1-2014,NA,NA,hand_pump,NA,NA,NA,NA,NA,Functional,12/31/2018,2/3/2019,NA,NA,12,5,NA,NA,89281
KEN,Kenya,Kakuma,KEN-KENs001093-011,Unknown,3.75486667,34.83698333,603,active,1/2/2015,25,7.7,electrical_pump,SP 30-13,12.5,36,NA,NA,Kakuma 4,7/1/2019,7/28/2019,NA,105,19,16,NA,4665,186622
TCD,Chad,Dosseye,TCD-TCDs003104-011,Unknown,8.1575,16.48666667,NA,active,NA,NA,NA,hand_pump,Vergnet HPV60,NA,NA,NA,NA,NA,1/1/2017,12/31/2017,NA,NA,NA,NA,NA,NA,NA
TCD,Chad,Dar Es Salam,TCD-TCDs080005-011,Unknown,13.62375,14.30380556,NA,active,NA,25,18.2,hand_pump,India Mark II,20,1.52,13,NA,NA,1/1/2018,12/31/2018,NA,NA,NA,NA,NA,NA,NA
UGA,Uganda,Nakivale,UGA-UGAs001945-011,Unknown,0.84513889,30.93480556,1284,active,1/1/2011,40,NA,NA,NA,NA,NA,12,NA,NA,4/1/2019,4/28/2019,2973,825,17,4,19,275,89207
KEN,Kenya,Kakuma,KEN-KENs001093-012,Unknown,3.73266667,34.83788333,600,active,1/1/2014,30,9.68,electrical_pump,NA,NA,31,NA,NA,n/a-SALINE,7/1/2019,7/28/2019,NA,105,19,16,NA,4665,186622
TCD,Chad,Dosseye,TCD-TCDs003104-012,Unknown,8.1608333300000009,16.48694444,NA,active,NA,NA,NA,hand_pump,Vergnet HPV60,NA,NA,NA,NA,NA,1/1/2017,12/31/2017,NA,NA,NA,NA,NA,NA,NA
UGA,Uganda,Nakivale,UGA-UGAs001945-012,Unknown,0.82308333,30.94719444,1292,active,1/1/2009,80,NA,NA,NA,NA,3.24,12,NA,F,11/28/2018,11/28/2018,NA,NA,NA,NA,NA,NA,NA
KEN,Kenya,Kakuma,KEN-KENs001093-013,Unknown,3.75243333,34.83818333,590,active,1/1/2004,55,6.23,electrical_pump,SP 17-10,25,17.4,NA,NA,Twin tanks - kakuma one zone 3.,4/29/2019,6/2/2019,NA,106,21,16,NA,4665,186622
TCD,Chad,Belom,TCD-TCDs004478-013,Unknown,8.26946,18.4545,NA,active,3/10/2013,47.5,5.71,hand_pump,Vergnet HPV60,42,4.8,NA,NA,NA,12/3/2018,12/30/2018,515,NA,29,7,6,2835,22686
UGA,Uganda,Nakivale,UGA-UGAs001945-013,Unknown,0.74691667,31.99455556,1265,active,1/1/2008,70,NA,NA,NA,NA,NA,12,NA,NF.   Too small yield  (300l/hr) for motorisation,12/3/2018,12/30/2018,3254,904,16,5,22,368,97645
KEN,Kenya,Kakuma,KEN-KENs001093-014,Unknown,3.72596667,34.83856667,592,active,1/1/2014,90,11.5,electrical_pump,NA,NA,110.41,NA,NA,n/a-SALINE-DRY,6/3/2019,6/30/2019,NA,106,19,16,NA,3659,186622
MLI,Mali,Tombouctou - Kel Essouk Attarane,MLI--014,Unknown,16.720875,-2.41369444,NA,active,5/11/2014,48,20,hand_pump,PMH India,NA,3.4,NA,NA,Rehabilitation UNHCR,NA,NA,NA,NA,NA,NA,NA,NA,NA
TCD,Chad,Belom,TCD-TCDs004478-014,Unknown,8.26511,18.45525,NA,active,1/10/2013,47,5.15,hand_pump,Vergnet HPV60,42,5.4,NA,NA,NA,1/1/2018,12/31/2018,NA,NA,NA,NA,NA,NA,NA
UGA,Uganda,Nakivale,UGA-UGAs001945-014,Unknown,0.71913889,30.01711111,1249,active,1/1/2009,24,NA,NA,NA,NA,0.72,12,NA,F  but iron removal needed,12/31/2018,2/3/2019,3254,904,15,5,22,368,97645
UGA,Uganda,Byabakora III,UGA--014,Unknown,0.32977778,31.08055556,NA,active,1/1/2004,4.5,2,hand_pump,India mark II,3,0.9,12,20-7-2015,NA,NA,NA,NA,NA,NA,NA,NA,NA,NA
KEN,Kenya,Kakuma,KEN-KENs001093-015,Unknown,3.75288333,34.84038333,588,active,1/1/2014,60,8,electrical_pump,SP 30-13,25,40,NA,NA,Booster 1 (zone 2) and booster 5 (zone 1).,7/1/2019,7/28/2019,NA,105,19,16,NA,4665,186622
UGA,Uganda,Nakivale,UGA-UGAs001945-015,Unknown,0.71913889,30.01711111,1251,active,1/1/2009,10,NA,NA,NA,NA,NA,12,NA,NF  iron removal needed,12/3/2018,12/30/2018,3254,904,16,5,22,368,97645
KEN,Kenya,Kakuma,KEN-KENs001093-016,Unknown,3.74898333,34.84455,591,active,1/1/1992,30,2.91,electrical_pump,SP 30-13,16.5,20.4,NA,NA,Kakuma 1 zone 4. D/ Bosco tank. Main hospital and booster 1.,6/3/2019,6/30/2019,NA,106,19,16,NA,3659,186622
UGA,Uganda,Nakivale,UGA-UGAs001945-016,Unknown,0.71627778,30.04,1248,active,1/1/2009,21,NA,NA,NA,NA,0.72,12,NA,F .Iron removal filter  beingconstructed,11/28/2018,11/28/2018,NA,NA,NA,NA,NA,NA,NA
KEN,Kenya,Kakuma,KEN-KENs001093-017,Unknown,3.72288333,34.85123333,613,active,1/7/2015,50,12,electrical_pump,SP 30-17,36,36,NA,NA,Anticipated to serve Kakuma 1. To be commisioned,4/1/2019,4/28/2019,NA,105,19,17,NA,4634,185399
TCD,Chad,Dosseye,TCD-TCDs003104-017,Unknown,8.16472222,16.48972222,NA,active,NA,NA,NA,hand_pump,Vergnet HPV60,NA,NA,NA,NA,NA,1/1/2018,12/31/2018,NA,NA,NA,NA,NA,NA,NA
UGA,Uganda,Nakivale,UGA-UGAs001945-017,Unknown,0.72869444,30.04377778,1255,active,1/1/2010,70,NA,NA,NA,NA,NA,12,NA,F,4/29/2019,6/2/2019,2973,825,17,4,18,352,89207
UGA,Uganda,Kyangwali,UGA-UGAs990142-017,Unknown,1.15487,30.72436,1112,active,16-10-2014,NA,NA,hand_pump,NA,NA,900,NA,NA,Functional,1/1/2018,12/31/2018,NA,NA,NA,NA,NA,NA,NA
UGA,Uganda,Nakivale,UGA-UGAs001945-018,Unknown,0.75758333,30.04886111,1268,active,1/1/2008,70,NA,NA,NA,NA,NA,12,NA,F,12/3/2018,12/30/2018,3254,904,16,5,22,368,97645
KEN,Kenya,Kakuma,KEN-KENs001093-019,Unknown,3.71548333,34.85718333,603,active,1/1/2004,70,15,electrical_pump,SP 8A-15,60,5.7,NA,NA,Compound 1,6/3/2019,6/30/2019,NA,106,19,16,NA,3659,186622
UGA,Uganda,Nakivale,UGA-UGAs001945-019,Unknown,0.84172222,30.84180556,1270,active,1/1/2013,40,NA,NA,NA,NA,NA,12,NA,NA,7/29/2019,9/1/2019,876,564,18,5,17,341,86293
UGA,Uganda,Kiryandongo settlement,UGA-UGAs002378-019,Unknown,1.91719444,32.16938889,1089,active,NA,NA,NA,hand_pump,U2,53.4,12.89552239,12,NA,NA,NA,NA,NA,NA,NA,NA,NA,NA,NA
KEN,Kenya,Kakuma,KEN-KENs001093-020,Unknown,3.70688333,34.85826667,594,active,1/1/1999,45,8.5,electrical_pump,SP 8A-15,39,8.5,NA,NA,UNHCR compound.,4/29/2019,6/2/2019,NA,106,21,16,NA,4665,186622
UGA,Uganda,Nakivale,UGA-UGAs001945-020,Unknown,0.85933333,30.84219444,1272,active,1/1/2013,70,NA,NA,NA,NA,NA,12,NA,NA,12/31/2018,2/3/2019,3254,904,15,5,22,368,97645
UGA,Uganda,Itambabiniga Central,UGA--020,Unknown,0.38413889,31.10441667,NA,active,NA,4,1,hand_pump,India mark II,3,3,12,NA,NA,NA,NA,NA,NA,NA,NA,NA,NA,NA
KEN,Kenya,Kakuma,KEN-KENs001093-021,Unknown,3.71348333,34.85833333,609,active,1/1/2005,100,18,electrical_pump,SP 8A-15,60,12,NA,NA,Being used for Construction purposes.,6/3/2019,6/30/2019,NA,106,19,16,NA,3659,186622
UGA,Uganda,Nakivale,UGA-UGAs001945-021,Unknown,0.82986111,30.84644444,1262,active,1/1/2009,40,43.57,NA,NA,NA,0.514,12,NA,NA,2/4/2019,3/3/2019,3310,919,17,4,21,336,89207
UGA,Uganda,Kyangwali,UGA-UGAs990142-021,Unknown,1.15467,30.72599,1122,active,21-1-2015,NA,NA,hand_pump,NA,NA,1.27,NA,NA,Functional,11/26/2018,12/2/2018,749,NA,14,NA,NA,NA,86220
KEN,Kenya,Kakuma,KEN-KENs001093-022,Unknown,3.77933333,34.82806667,587,active,1/1/2004,80,15,hand_pump,Duba h/pump,30,12,NA,NA,Kakuma 3 host community,7/1/2019,7/28/2019,NA,105,19,16,NA,4665,186622
UGA,Uganda,Nakivale,UGA-UGAs001945-022,Unknown,0.80375,30.87427778,1250,active,1/1/2013,40,NA,NA,NA,NA,NA,12,NA,NA,3/4/2019,3/31/2019,2973,825,17,4,20,336,89207
UGA,Uganda,Kyangwali,UGA-UGAs990142-022,Unknown,1.14879,30.72721,1153,active,27-1-2014,NA,NA,hand_pump,NA,NA,744.8275862,NA,NA,Functional,10/29/2018,12/2/2018,NA,NA,NA,NA,NA,NA,NA
KEN,Kenya,Kakuma,KEN-KENs001093-023,Unknown,3.73433333,34.84248333,588,active,1/1/2006,70,12,hand_pump,Duba h/pump,18,5,NA,NA,Kakuma 1 zone 1 zone 2 block 15,7/29/2019,9/1/2019,NA,106,19,17,NA,3719,189692
UGA,Uganda,Nakivale,UGA-UGAs001945-023,Unknown,0.82255556,30.876,1268,active,1/1/2011,30,NA,NA,NA,NA,NA,12,NA,NA,4/1/2019,4/28/2019,2973,825,17,4,19,275,89207
UGA,Uganda,Kyangwali,UGA-UGAs990142-023,Unknown,1.16061,30.728,1152,active,23-1-2014,NA,NA,hand_pump,NA,NA,NA,NA,NA,Functional,12/17/2018,12/23/2018,749,NA,14,12,NA,749,86220
KEN,Kenya,Sarif,KEN--024,Unknown,0.59752778,40.60094444,120,active,NA,NA,NA,NA,NA,NA,NA,NA,NA,NA,NA,NA,NA,NA,NA,NA,NA,NA,NA
UGA,Uganda,Nakivale,UGA-UGAs001945-024,Unknown,0.79722222,30.88030556,1251,active,1/1/2010,10,NA,NA,NA,NA,NA,12,NA,NF. Needs fishing,6/3/2019,6/30/2019,3303,825,17,6,11,9911,89207
UGA,Uganda,Kyangwali,UGA-UGAs990142-024,Unknown,1.1591,30.72807,1149,active,22-1-2014,NA,NA,hand_pump,NA,NA,NA,NA,NA,Functional,12/31/2018,2/3/2019,NA,NA,12,5,NA,NA,89281
UGA,Uganda,Nakivale,UGA-UGAs001945-025,Unknown,0.81425,30.88227778,1253,active,1/1/2010,10,NA,NA,NA,NA,0.828,12,NA,F,3/4/2019,3/31/2019,2973,825,17,4,20,336,89207
UGA,Uganda,Kyangwali,UGA-UGAs990142-025,Unknown,1.15179,30.72843,1130,active,20-3-2014,NA,NA,hand_pump,NA,NA,1.13,NA,NA,Functional,10/29/2018,12/2/2018,NA,NA,NA,NA,NA,NA,NA
UGA,Uganda,Nakivale,UGA-UGAs001945-027,Unknown,0.81733333,30.89025,1252,active,1/1/2009,10,NA,NA,NA,NA,NA,12,NA,NA,6/3/2019,6/30/2019,3303,825,17,6,11,9911,89207
UGA,Uganda,Kyangwali,UGA-UGAs990142-027,Unknown,1.15618,30.731017,1152,active,15-12-2014,NA,NA,hand_pump,NA,NA,NA,NA,NA,Functional,12/31/2018,2/3/2019,NA,NA,12,5,NA,NA,89281
UGA,Uganda,Nakivale,UGA-UGAs001945-028,Unknown,0.82213889,30.89380556,1263,active,1/1/2006,15,NA,NA,NA,NA,NA,12,NA,NF  .fresh installation needed,2/4/2019,3/3/2019,3310,919,17,4,21,336,89207
UGA,Uganda,Kyangwali,UGA-UGAs990142-028,Unknown,1.13645,30.73132,1171,active,20-11-2013,NA,NA,hand_pump,NA,NA,NA,NA,NA,Functional,11/26/2018,12/2/2018,749,NA,14,NA,NA,NA,86220
UGA,Uganda,Nakivale,UGA-UGAs001945-029,Unknown,0.81755556,30.89605556,1260,active,1/1/2013,30,NA,NA,NA,NA,NA,12,NA,NA,11/28/2018,11/28/2018,NA,NA,NA,NA,NA,NA,NA
UGA,Uganda,Nakivale,UGA-UGAs001945-030,Unknown,0.81736111,30.90691667,1254,active,1/1/2010,10,NA,NA,NA,NA,NA,12,NA,NA,12/3/2018,12/30/2018,3254,904,16,5,22,368,97645
UGA,Uganda,Nakivale,UGA-UGAs001945-031,Unknown,0.83508333,30.90975,1263,active,1/1/2010,70,NA,NA,NA,NA,0.216,12,NA,NF. has started drying up,2/4/2019,3/3/2019,3310,919,17,4,21,336,89207
UGA,Uganda,Kyangwali,UGA-UGAs990142-031,Unknown,1.13987,30.73273,1167,active,NA,NA,NA,hand_pump,NA,NA,NA,NA,NA,Functional,11/26/2018,12/2/2018,749,NA,14,NA,NA,NA,86220
UGA,Uganda,Nakivale,UGA-UGAs001945-032,Unknown,0.83138889,30.91527778,1272,active,1/1/2010,30,NA,NA,NA,NA,NA,12,NA,NA,12/10/2018,12/16/2018,3254,904,16,5,9,368,97645
UGA,Uganda,Nakivale,UGA-UGAs001945-033,Unknown,0.80397222,30.91605556,1250,active,1/1/2006,10,NA,NA,NA,NA,NA,12,NA,NF. Needs fishing,7/1/2019,7/28/2019,3303,NA,18,6,11,9911,89207
UGA,Uganda,Nyumanzi,UGA-UGAs004630-033,Unknown,3.46075,31.95783333,692,active,3/7/2014,51,15.4,hand_pump,U2,30,3.4,12,NA,NA,NA,NA,NA,NA,NA,NA,NA,NA,NA
UGA,Uganda,Nakivale,UGA-UGAs001945-034,Unknown,0.80397222,30.91605556,1254,active,1/1/2006,10,NA,NA,NA,NA,NA,12,NA,NA,4/1/2019,4/28/2019,2973,825,17,4,19,275,89207
UGA,Uganda,Kyangwali,UGA-UGAs990142-034,Unknown,1.1351,30.73384,1152,active,NA,NA,NA,hand_pump,NA,NA,1.08,NA,NA,Functional,12/17/2018,12/23/2018,749,NA,14,12,NA,749,86220
UGA,Uganda,Nakivale,UGA-UGAs001945-035,Unknown,0.80830556,30.93130556,1254,active,1/1/2005,90,NA,NA,NA,NA,NA,12,NA,NA,12/31/2018,2/3/2019,3254,904,15,5,22,368,97645
UGA,Uganda,Nakivale,UGA-UGAs001945-036,Unknown,0.75019444,30.93166667,1272,active,1/1/2008,10,NA,NA,NA,NA,0.792,12,NA,F Iron removal filter under constctn,7/29/2019,9/1/2019,876,564,18,5,17,341,86293
UGA,Uganda,Kiryandongo settlement,UGA-UGAs002378-036,Unknown,1.91652778,32.17722222,1079,active,NA,NA,NA,hand_pump,U2,26.4,15.6,12,NA,NA,NA,NA,NA,NA,NA,NA,NA,NA,NA
UGA,Uganda,Nakivale,UGA-UGAs001945-037,Unknown,0.73552778,30.93394444,1252,active,1/1/2008,10,NA,NA,NA,NA,NA,12,NA,NA,4/29/2019,6/2/2019,2973,825,17,4,18,352,89207
UGA,Uganda,Kyangwali,UGA-UGAs990142-037,Unknown,1.17574,30.73773,1109,active,NA,NA,NA,hand_pump,NA,NA,939.1304348,NA,NA,Functional,1/1/2018,12/31/2018,NA,NA,NA,NA,NA,NA,NA
UGA,Uganda,Nakivale,UGA-UGAs001945-038,Unknown,0.77247222,30.93941667,1256,active,1/1/2013,30,NA,NA,NA,NA,NA,NA,NA,NF,2/4/2019,3/3/2019,3310,919,17,4,21,336,89207
UGA,Uganda,Mukondo D,UGA--038,Unknown,0.32680556,31.10397222,NA,active,1/1/2011,4,1,hand_pump,India mark II,3,1,12,NA,NA,NA,NA,NA,NA,NA,NA,NA,NA,NA
UGA,Uganda,Nakivale,UGA-UGAs001945-039,Unknown,0.77947222,30.95030556,1258,active,1/1/2013,30,NA,NA,NA,NA,NA,12,NA,NF,11/28/2018,11/28/2018,NA,NA,NA,NA,NA,NA,NA
UGA,Uganda,Nakivale,UGA-UGAs001945-040,Unknown,0.80219444,30.96955556,1240,active,1/1/2005,50,NA,NA,NA,NA,NA,12,NA,NA,6/3/2019,6/30/2019,3303,825,17,6,11,9911,89207
UGA,Uganda,Kyangwali,UGA-UGAs990142-040,Unknown,1.1651,30.74485,1155,active,NA,NA,NA,hand_pump,NA,NA,900,NA,NA,Functional,1/1/2018,12/31/2018,NA,NA,NA,NA,NA,NA,NA
UGA,Uganda,Nakivale,UGA-UGAs001945-041,Unknown,0.72941667,30.98977778,1250,active,1/1/2009,10,NA,NA,NA,NA,0.828,12,NA,F    but needs iron removal,2/4/2019,3/3/2019,3310,919,17,4,21,336,89207
UGA,Uganda,Nakivale,UGA-UGAs001945-042,Unknown,0.74691667,30.99455556,1264,active,1/1/2011,50,NA,NA,NA,NA,NA,12,NA,F,7/29/2019,9/1/2019,876,564,18,5,17,341,86293
UGA,Uganda,Kyangwali,UGA-UGAs990142-042,Unknown,1.14959,30.74742,1136,active,NA,NA,NA,hand_pump,NA,NA,1.27,NA,NA,Functional,12/31/2018,2/3/2019,NA,NA,12,5,NA,NA,89281
UGA,Uganda,Kyangwali,UGA-UGAs990142-103,Unknown,1.14336111,30.71291667,1120,active,NA,NA,NA,hand_pump,NA,NA,1.02,NA,NA,Functional,12/31/2018,2/3/2019,NA,NA,12,5,NA,NA,89281
UGA,Uganda,Nakivale,UGA-UGAs001945-043,Unknown,0.72688889,30.99855556,1248,active,1/1/2008,10,NA,NA,NA,NA,NA,12,NA,NF. needs Fresh installation needed,2/4/2019,3/3/2019,3310,919,17,4,21,336,89207
UGA,Uganda,Nakivale,UGA-UGAs001945-044,Unknown,0.72688889,30.99855556,1249,active,1/1/2006,10,NA,NA,NA,NA,0.72,12,NA,F,7/29/2019,9/1/2019,876,564,18,5,17,341,86293
UGA,Uganda,Kyangwali,UGA-UGAs990142-044,Unknown,1.17146,30.74775,1156,active,NA,NA,NA,hand_pump,NA,NA,1.27,NA,NA,Functional,12/31/2018,2/3/2019,NA,NA,12,5,NA,NA,89281
UGA,Uganda,Nakivale,UGA-UGAs001945-045,Unknown,0.73330556,31.00375,1247,active,1/1/2011,90,NA,NA,NA,NA,NA,12,NA,F,3/4/2019,3/31/2019,2973,825,17,4,20,336,89207
UGA,Uganda,Sweswe dam I,UGA--045,Unknown,0.35547222,31.11,NA,active,1/1/2010,4.2,1.6,hand_pump,India mark II,3,1.2,12,NA,NA,NA,NA,NA,NA,NA,NA,NA,NA,NA
UGA,Uganda,Nakivale,UGA-UGAs001945-046,Unknown,0.70280556,31.18102778,1245,active,1/1/2010,70,NA,NA,NA,NA,NA,12,NA,F,11/28/2018,11/28/2018,NA,NA,NA,NA,NA,NA,NA
UGA,Uganda,Nakivale,UGA-UGAs001945-047,Unknown,0.72941667,31.98977778,1251,active,1/1/2010,10,NA,NA,NA,NA,0.828,12,NA,F    but needs iron removal,4/1/2019,4/28/2019,2973,825,17,4,19,275,89207
UGA,Uganda,Kyangwali,UGA-UGAs990142-047,Unknown,1.19098,30.75005,1090,active,NA,NA,NA,hand_pump,NA,NA,1.34,NA,9/3/2015,Functional,11/26/2018,12/2/2018,749,NA,14,NA,NA,NA,86220
UGA,Uganda,Nakivale,UGA-UGAs001945-048,Unknown,0.75758333,30.04886111,1268,active,1/1/2008,50,NA,NA,NA,NA,NA,12,NA,NA,12/10/2018,12/16/2018,3254,904,16,5,9,368,97645
UGA,Uganda,Nakivale,UGA-UGAs001945-049,Unknown,0.8065,30.90611111,1249,active,1/1/2013,40,NA,NA,NA,NA,NA,NA,NA,NA,4/1/2019,4/28/2019,2973,825,17,4,19,275,89207
UGA,Uganda,Nakivale,UGA-UGAs001945-050,Unknown,0.8365,30.90994444,1263,active,1/1/2010,70,NA,NA,NA,NA,NA,NA,NA,NA,4/29/2019,6/2/2019,2973,825,17,4,18,352,89207
UGA,Uganda,Kyangwali,UGA-UGAs990142-050,Unknown,1.15638,30.75345,1166,active,NA,NA,NA,hand_pump,NA,NA,939.1304348,NA,NA,Functional,10/29/2018,12/2/2018,NA,NA,NA,NA,NA,NA,NA
UGA,Uganda,Nakivale,UGA-UGAs001945-051,Unknown,0.72688889,30.99855556,1246,active,1/1/2009,10,NA,NA,NA,NA,NA,12,NA,NA,12/3/2018,12/30/2018,3254,904,16,5,22,368,97645
UGA,Uganda,Nakivale,UGA-UGAs001945-052,Unknown,0.72688889,31.99855556,1247,active,1/1/2009,30,NA,NA,NA,NA,NA,NA,NA,NA,6/3/2019,6/30/2019,3303,825,17,6,11,9911,89207
UGA,Uganda,Kyangwali,UGA-UGAs990142-052,Unknown,1.20003,30.75391,1110,active,NA,NA,NA,hand_pump,NA,NA,939.1304348,NA,NA,Functional,12/17/2018,12/23/2018,749,NA,14,12,NA,749,86220
UGA,Uganda,Kyangwali,UGA-UGAs990142-054,Unknown,1.14017,30.7542,1116,active,NA,NA,NA,hand_pump,NA,NA,526.8292683,NA,NA,Functional,1/1/2018,12/31/2018,NA,NA,NA,NA,NA,NA,NA
UGA,Uganda,Kyangwali,UGA-UGAs990142-056,Unknown,1.1563,30.75604,1166,active,NA,NA,NA,hand_pump,NA,NA,939.1304348,NA,NA,Functional,12/17/2018,12/23/2018,749,NA,14,12,NA,749,86220
UGA,Uganda,Kyangwali,UGA-UGAs990142-058,Unknown,1.15278,30.75621,1141,active,NA,NA,NA,hand_pump,NA,NA,1.35,NA,NA,Functional,10/29/2018,12/2/2018,NA,NA,NA,NA,NA,NA,NA
UGA,Uganda,Kyangwali,UGA-UGAs990142-059,Unknown,1.19931,30.75721,1124,active,NA,NA,NA,hand_pump,NA,NA,1.35,NA,9/3/2015,Functional,11/26/2018,12/2/2018,749,NA,14,NA,NA,NA,86220
UGA,Uganda,Kyangwali,UGA-UGAs990142-063,Unknown,1.17741,30.75852,1134,active,NA,NA,NA,hand_pump,NA,NA,1.2,NA,NA,Functional,12/31/2018,2/3/2019,NA,NA,12,5,NA,NA,89281
UGA,Uganda,Kyangwali,UGA-UGAs990142-065,Unknown,1.17878,30.76124,1120,active,NA,NA,NA,hand_pump,NA,NA,1.13,NA,NA,Functional,1/1/2018,12/31/2018,NA,NA,NA,NA,NA,NA,NA
UGA,Uganda,Kyangwali,UGA-UGAs990142-067,Unknown,1.1864,30.76321,NA,active,NA,NA,NA,hand_pump,NA,NA,1.12,NA,NA,Functional,12/17/2018,12/23/2018,749,NA,14,12,NA,749,86220
UGA,Uganda,Kyangwali,UGA-UGAs990142-069,Unknown,1.16993,30.76418,1148,active,NA,NA,NA,hand_pump,NA,NA,1.54,NA,NA,Functional,10/29/2018,12/2/2018,NA,NA,NA,NA,NA,NA,NA
UGA,Uganda,Kyangwali,UGA-UGAs990142-071,Unknown,1.16198,30.76475,NA,active,NA,NA,NA,hand_pump,NA,NA,947.3684211,NA,NA,Functional,11/26/2018,12/2/2018,749,NA,14,NA,NA,NA,86220
UGA,Uganda,Kyangwali,UGA-UGAs990142-001,Unknown,1.16416,30.76519,1154,active,NA,NA,NA,hand_pump,NA,NA,1.13,NA,NA,Functional,11/26/2018,12/2/2018,749,NA,14,NA,NA,NA,86220
UGA,Uganda,Kyangwali,UGA-UGAs990142-001,Unknown,1.17269,30.76954,1143,active,NA,NA,NA,hand_pump,NA,NA,1.03,NA,NA,Functional,12/31/2018,2/3/2019,NA,NA,12,5,NA,NA,89281
UGA,Uganda,Kyangwali,UGA-UGAs990142-001,Unknown,1.18662,30.77087,1164,active,NA,NA,NA,hand_pump,NA,NA,1.27,NA,NA,Functional,1/1/2018,12/31/2018,NA,NA,NA,NA,NA,NA,NA
UGA,Uganda,Kyangwali,UGA-UGAs990142-080,Unknown,1.1774,30.77542,1155,active,NA,NA,NA,hand_pump,NA,NA,1.44,NA,NA,Functional,12/17/2018,12/23/2018,749,NA,14,12,NA,749,86220
UGA,Uganda,Kyangwali,UGA-UGAs990142-001,Unknown,1.17482,30.77999,1169,active,NA,NA,NA,hand_pump,NA,NA,1.44,NA,NA,Functional,10/29/2018,12/2/2018,NA,NA,NA,NA,NA,NA,NA
UGA,Uganda,Kyangwali,UGA-UGAs990142-001,Unknown,1.18773,30.78067,NA,active,NA,NA,NA,hand_pump,NA,NA,750,NA,NA,Functional,11/26/2018,12/2/2018,749,NA,14,NA,NA,NA,86220
UGA,Uganda,Kyangwali,UGA-UGAs990142-001,Unknown,1.17977,30.78204,1153,active,NA,NA,NA,hand_pump,NA,NA,1.13,NA,NA,Functional,12/31/2018,2/3/2019,NA,NA,12,5,NA,NA,89281
UGA,Uganda,Kyangwali,UGA-UGAs990142-090,Unknown,1.16167,30.78357,1133,active,NA,NA,NA,hand_pump,NA,NA,1.2,NA,NA,Functional,1/1/2018,12/31/2018,NA,NA,NA,NA,NA,NA,NA
UGA,Uganda,Kyangwali,UGA-UGAs990142-001,Unknown,1.17482,30.78433,1132,active,NA,NA,NA,hand_pump,NA,NA,1.66,NA,NA,Functional,12/17/2018,12/23/2018,749,NA,14,12,NA,749,86220
UGA,Uganda,Kyangwali,UGA-UGAs990142-001,Unknown,1.18344,30.786,1153,active,NA,NA,NA,hand_pump,NA,NA,1.44,NA,NA,Functional,10/29/2018,12/2/2018,NA,NA,NA,NA,NA,NA,NA
UGA,Uganda,Kyangwali,UGA-UGAs990142-001,Unknown,1.1876,30.79296,NA,active,NA,NA,NA,hand_pump,NA,NA,360,NA,NA,LOW YIELD,11/26/2018,12/2/2018,749,NA,14,NA,NA,NA,86220
UGA,Uganda,Kyangwali,UGA-UGAs990142-001,Unknown,1.14922222,30.69661111,NA,active,NA,NA,NA,hand_pump,NA,NA,1.02,NA,NA,Functional,12/31/2018,2/3/2019,NA,NA,12,5,NA,NA,89281
UGA,Uganda,Kyangwali,UGA-UGAs990142-102,Unknown,1.12622222,30.71105556,1092,active,NA,NA,NA,hand_pump,NA,NA,1.2,NA,NA,Functional,1/1/2018,12/31/2018,NA,NA,NA,NA,NA,NA,NA
UGA,Uganda,Kyangwali,UGA-UGAs990142-105,Unknown,1.1135,30.71941667,995,active,NA,NA,NA,hand_pump,NA,NA,1.27,NA,NA,Functional,12/17/2018,12/23/2018,749,NA,14,12,NA,749,86220
UGA,Uganda,Kyangwali,UGA-UGAs990142-107,Unknown,1.14097222,30.74038889,1156,active,NA,NA,NA,hand_pump,NA,NA,1.27,NA,NA,Functional,10/29/2018,12/2/2018,NA,NA,NA,NA,NA,NA,NA
UGA,Uganda,Kyangwali,UGA-UGAs990142-109,Unknown,1.13141667,30.74422222,1086,active,NA,NA,NA,hand_pump,NA,NA,1.27,NA,NA,Functional,11/26/2018,12/2/2018,749,NA,14,NA,NA,NA,86220
UGA,Uganda,Kyangwali,UGA-UGAs990142-112,Unknown,1.13838889,30.75036111,1108,active,NA,NA,NA,hand_pump,NA,NA,1.2,NA,NA,Functional,12/31/2018,2/3/2019,NA,NA,12,5,NA,NA,89281
UGA,Uganda,Kyangwali,UGA-UGAs990142-114,Unknown,1.15580556,30.75177778,NA,active,NA,NA,NA,hand_pump,NA,NA,1.08,NA,NA,Functional,1/1/2018,12/31/2018,NA,NA,NA,NA,NA,NA,NA
UGA,Uganda,Kyangwali,UGA-UGAs990142-116,Unknown,1.1565,30.76805556,1133,active,NA,NA,NA,hand_pump,NA,NA,1.13,NA,NA,Functional,12/17/2018,12/23/2018,749,NA,14,12,NA,749,86220
UGA,Uganda,Bidibidi,UGA-UGAs027216-005,Unknown,3.41112,31.28126,902,active,26-10-1990,NA,NA,hand_pump,NA,NA,NA,NA,NA,"Handle locked, no people around",NA,NA,NA,NA,NA,NA,NA,NA,NA
UGA,Uganda,Bidibidi,UGA-UGAs027216-016,Unknown,3.42199,31.15244,NA,NA,NA,NA,NA,hand_pump,NA,NA,NA,NA,NA,NA,NA,NA,NA,NA,NA,NA,NA,NA,NA
UGA,Uganda,Bidibidi,UGA-UGAs027216-027,Unknown,3.47119,31.40547,749,active,28-8-2016,NA,NA,hand_pump,NA,NA,0.8,12,20-11-2016,Report coordinates seem to be wrong; Wrong number on concrete slab? Maybe DWD 53301 instead.,NA,NA,NA,NA,NA,NA,NA,NA,NA
UGA,Uganda,Bidibidi,UGA-UGAs027216-038,Unknown,3.47057,31.37883,808,active,7/9/2016,114.12,21.46,hand_pump,NA,36,0.8,6,21-11-2016,BH located nearby small valley; no outcrops,NA,NA,NA,NA,NA,NA,NA,NA,NA
UGA,Uganda,Bidibidi,UGA-UGAs027216-049,Unknown,3.453985,31.364324,813,active,NA,52,1.54,hand_pump,U2 India Mark,18,0.8,6,5/9/2016,NA,NA,NA,NA,NA,NA,NA,NA,NA,NA
UGA,Uganda,Bidibidi,UGA-UGAs027216-060,Unknown,3.5285,31.33949,842,active,17-10-2016,62,18.34,hand_pump,Uganda U2 Model Deepwell Handpump India,30,0.8,12,22-11-2016,"BH drilled 40m from small valley, next to an anthill; no well development?",NA,NA,NA,NA,NA,NA,NA,NA,NA
UGA,Uganda,Bidibidi,UGA-UGAs027216-071,Unknown,3.39911,31.34856,813,active,24-10-2016,70,26.72,hand_pump,U2 India Mark<br>(AOV U2 modified),39,0.8,12,4/12/2016,Rimheight = 57cm; BH located next to small valley and anthill nearby,NA,NA,NA,NA,NA,NA,NA,NA,NA
UGA,Uganda,Bidibidi,UGA-UGAs027216-081,Unknown,3.3708,31.30735,837,active,21-11-2016,73.6,3,hand_pump,NA,NA,0.8,12,4/12/2016,"Handpump is operational, but needs to be changed asap for electric submersible pump (and proper test pumping first to define sustainable yield). Scheduled before Christmas; BH located 5m near small valley with outcrops of jointed banded gneiss",NA,NA,NA,NA,NA,NA,NA,NA,NA
UGA,Uganda,Bidibidi,UGA-UGAs027216-092,Unknown,3.32797,31.340025,708,NA,NA,33.9,8.92,NA,NA,29.4,NA,NA,NA,No data for borehole construction. Screen location and water strike levels are unknown.<br>The borehole can probably be pumped at 5m3/hr with a DWL at 25 m. If the assumed head is OK then a Grundfos SP5A-25 would be an appropriate pump,NA,NA,NA,NA,NA,NA,NA,NA,NA
UGA,Uganda,Bidibidi,UGA-UGAs027216-103,Unknown,3.38831,31.32835,858,active,17-2-2001,66,NA,hand_pump,NA,NA,NA,NA,NA,Rehabilitated old BH. New handle and new pipes,NA,NA,NA,NA,NA,NA,NA,NA,NA
UGA,Uganda,Bidibidi,UGA-UGAs027216-114,Unknown,3.35944,31.25959,892,active,29-8-2013,NA,NA,hand_pump,NA,NA,NA,NA,22-11-2016,No outcrops or streams nearby,NA,NA,NA,NA,NA,NA,NA,NA,NA
UGA,Uganda,Bidibidi,UGA-UGAs027216-125,Unknown,3.49632,31.15605,NA,NA,NA,NA,NA,hand_pump,NA,NA,NA,NA,NA,NA,NA,NA,NA,NA,NA,NA,NA,NA,NA
UGA,Uganda,Bidibidi,UGA-UGAs027216-137,Unknown,3.62395,31.23526,965,active,NA,NA,NA,electrical_pump,NA,NA,13.75,10,22-11-2016,Coordinates close to BH (gate was closed); seems like no esay access of water for GWL monitoring; BH located 1 km next to beautifull granite dome (inselberg),NA,NA,NA,NA,NA,NA,NA,NA,NA
UGA,Uganda,Rhino Camp,UGA-UGAs990099-002,Unknown,3.12138,31.16918,786,inactive,NA,NA,NA,hand_pump,NA,NA,NA,NA,NA,"BH located close to a steep valley. Drilling finished, next step is test pumping followed by HP installation",9/2/2019,9/29/2019,229,278,25,7,17,777,111221
UGA,Uganda,Rhino Camp,UGA-UGAs990099-004,Unknown,3.08079,31.28369,678,active,NA,NA,NA,hand_pump,NA,NA,0.8,8,26-11-2016,"BH located next to the main road, on the edge of the bottom land (very wide and gentle valley). Next to the football field. No outcrops (alluvium)",12/31/2018,2/3/2019,NA,478,0,NA,NA,NA,40664
UGA,Uganda,Rhino Camp,UGA-UGAs990099-008,Unknown,3.07092,31.4051,665,active,NA,NA,46.7,electrical_pump,Grundfoss <br>SQFlex 2.5-2,75,1.1,10,NA,"Motorized HY BH, pump uses solar panels, protected by fence and alarm, someone from Malteser is reading out the flow meter. Water is supplied by a 10 m3 Crest Tank and a total of 3x6 + 1x4 tap stands; average yield (measured with flow meter) calculated ov",7/1/2019,7/28/2019,5,1,20,8,17,805,109556
UGA,Uganda,Rhino Camp,UGA-UGAs990099-011,Unknown,3.14615,31.26495,689,active,NA,NA,NA,electrical_pump,"Motor, solar",NA,NA,10,NA,"Motorized High Yielding BH, pump powered by solar panels, so pumping only during daylight (10 hours a day), borehole is coverd by concrete slab; no people nearby",7/29/2019,9/1/2019,242,273,26,7,16,817,110345
UGA,Uganda,Rhino Camp,UGA-UGAs990099-055,Unknown,3.17721,31.33329,650,inactive,NA,NA,NA,hand_pump,India type,NA,NA,NA,NA,No info on slab,9/2/2019,9/29/2019,229,278,25,7,17,777,111221
UGA,Uganda,Rhino Camp,UGA-UGAs990099-016,Unknown,3.14873,31.2973,676,active,28-8-2016,NA,NA,hand_pump,India Type,NA,NA,NA,27-11-2016,Fine sandy soil; no outcrops. Rehab 06/02/2014; 'REHABILIATION IMPLEMENTED BY RELIEF HOPE RECOVERY' written on slab,12/31/2018,2/3/2019,NA,478,0,NA,NA,NA,40664
UGA,Uganda,Rhino Camp,UGA-UGAs990099-019,Unknown,3.18247,31.28002,662,active,NA,NA,NA,hand_pump,India Type,NA,NA,NA,27-11-2016,"Gentle slope, fine sandy soil, no outcrops. Rehab by DMCDD/ERIKS 17/02/2014",7/1/2019,7/28/2019,5,1,20,8,17,805,109556
UGA,Uganda,Rhino Camp,UGA-UGAs990099-022,Unknown,3.05128,31.42123,664,inactive,7/1/2005,NA,NA,hand_pump,NA,NA,NA,NA,NA,"thick red soil, fine sandy/silty lateritic",7/29/2019,9/1/2019,242,273,26,7,16,817,110345
UGA,Uganda,Rhino Camp,UGA-UGAs990099-025,Unknown,3.08361,31.28422,675,inactive,1/1/2002,NA,NA,hand_pump,NA,NA,NA,NA,NA,"BH located on a gentle sloping valley, no outcrops",9/2/2019,9/29/2019,229,278,25,7,17,777,111221
UGA,Uganda,Rhino Camp,UGA-UGAs990099-027,Unknown,3.11496,31.185,759,active,21-9-2016,90,31.68,hand_pump,U2 (India)<br>Bahati-Mahad Investments,54,0.8,12,28-11-2016,"BH located 20m to a small valley (side valley of the main lineament valley NE-SW). Fractured rocks nearby, outcrops of gneiss in the valley.<br>2 hours of well development at 90m depth",12/31/2018,2/3/2019,NA,478,0,NA,NA,NA,40664
UGA,Uganda,Rhino Camp,UGA-UGAs990099-030,Unknown,3.13196,31.20154,739,active,14-10-2016,78,45.3,hand_pump,U2 (India),57,0.8,1,24-11-2016,Outcrops of gneiss and big spherical boulders of meta-gabbro (?)<br>2 hours of well development at 51m depth,7/1/2019,7/28/2019,5,1,20,8,17,805,109556
UGA,Uganda,Rhino Camp,UGA-UGAs990099-033,Unknown,3.00288,31.40117,651,active,29-3-2000,NA,NA,hand_pump,NA,NA,0.8,12,26-11-2016,BH located at central square in big valley; approximately 2 km from the river Nile,7/29/2019,9/1/2019,242,273,26,7,16,817,110345
UGA,Uganda,Rhino Camp,UGA-UGAs990099-036,Unknown,3.16999,31.27689,658,active,16-9-2016,76.8,34.94,hand_pump,U2 (India),48,NA,NA,27-11-2016,Black soil; no outcrops. 1.5hr well development,9/2/2019,9/29/2019,229,278,25,7,17,777,111221
UGA,Uganda,Rhino Camp,UGA-UGAs990099-038,Unknown,3.06129,31.317,655,active,9/9/2016,113.7,49.25,hand_pump,U2 (India) Extra deep with 2 cylinders,63,0.8,12,26-11-2016,"BH located on a very gentle slope, no valley nearby, no outcrops (alluvium), anthill nearby BH. 2.0 hrs well development. Borehole collapsed until 76m depth!",12/31/2018,2/3/2019,NA,478,0,NA,NA,NA,40664
UGA,Uganda,Rhino Camp,UGA-UGAs990099-041,Unknown,3.10321,31.3495,652,active,25-6-2015,NA,41.5,electrical_pump,Grundfoss <br>SQFlex 2.5-2,50,1.88,10,NA,"Motorized HY BH, pump uses solar panels, protected by fence; Water is supplied by a 10 m3 Crest Tank and a total of 6x4 tap stands; average yield (measured with flow meter) calculated over the period 02/12/2015 - 31/08/2016",7/1/2019,7/28/2019,5,1,20,8,17,805,109556
UGA,Uganda,Rhino Camp,UGA-UGAs990099-044,Unknown,3.090888,31.401213,NA,active,NA,NA,42.2,electrical_pump,Grundfoss <br>SQFlex 2.5-2,70,1.13,10,NA,"Motorized HY BH, pump uses solar panels, protected by fence; Water is supplied by a 10 m3 Crest Tank and a total of 3x6 tap stands; average yield (measured with flow meter) calculated over the period 12/09/2014 - 31/08/2016",7/29/2019,9/1/2019,242,273,26,7,16,817,110345
UGA,Uganda,Rhino Camp,UGA-UGAs990099-047,Unknown,3.07109,31.40471,661,inactive,NA,NA,NA,hand_pump,NA,NA,NA,NA,NA,"Fine sandy soil, grey/brown. HP not working anymore, but at the Olujobo Health Centre is now a Motorized BH so people use tap stand",9/2/2019,9/29/2019,229,278,25,7,17,777,111221
UGA,Uganda,Rhino Camp,UGA-UGAs990099-049,Unknown,3.13245,31.16344,792,NA,NA,90,NA,NA,NA,NA,NA,NA,NA,"Drilled 10 m next to a very small valley, but located in the high zone between two major catchments so location not ideal. First Water Strike was more damp than water",12/31/2018,2/3/2019,NA,478,0,NA,NA,NA,40664
UGA,Uganda,Rhino Camp,UGA-UGAs990099-052,Unknown,3.10857,31.20212,724,NA,NA,120,NA,NA,NA,NA,NA,NA,NA,NA,7/1/2019,7/28/2019,5,1,20,8,17,805,109556
UGA,Uganda,Rhino Camp,UGA-UGAs990099-056,Unknown,3.16425,31.34508,636,inactive,NA,NA,NA,hand_pump,India type,NA,NA,NA,NA,NA,7/29/2019,9/1/2019,242,273,26,7,16,817,110345
UGA,Uganda,Rhino Camp,UGA-UGAs990099-059,Unknown,3.17461,31.35219,639,active,NA,NA,NA,hand_pump,India type,NA,NA,NA,12/12/2016,Rehab by IAS. Date on slab 01/10/2016,9/2/2019,9/29/2019,229,278,25,7,17,777,111221
UGA,Uganda,Rhino Camp,UGA-UGAs990099-061,Unknown,3.12994,31.34815,655,inactive,NA,NA,NA,hand_pump,India type,NA,NA,NA,NA,No info on slab,12/31/2018,2/3/2019,NA,478,0,NA,NA,NA,40664
UGA,Uganda,Rhino Camp,UGA-UGAs990099-064,Unknown,3.13628,31.3628,645,active,NA,NA,NA,hand_pump,India type,NA,NA,NA,12/12/2016,"Rehab by Oxfam, dated 22/03/2004",7/1/2019,7/28/2019,5,1,20,8,17,805,109556
UGA,Uganda,Palabek,UGA-UGAs032255-006,Unknown,3.390912,32.440663,863,active,20-5-2017,50.3,12.4,NA,NA,30,NA,NA,NA,NA,NA,NA,NA,NA,NA,NA,NA,NA,NA
UGA,Uganda,Palabek,UGA-UGAs032255-017,Unknown,3.477611,32.592995,916,active,17-6-2017,61.3,24.47,NA,NA,27,NA,NA,NA,NA,NA,NA,NA,NA,NA,NA,NA,NA,NA
UGA,Uganda,Imvepi Settlement,UGA-UGAs004668-005,Unknown,3.20749,31.26262,NA,active,NA,NA,NA,NA,NA,NA,NA,NA,NA,NA,NA,NA,NA,NA,NA,NA,NA,NA,NA
UGA,Uganda,Imvepi Settlement,UGA-UGAs004668-016,Unknown,3.22963,31.28282,NA,active,NA,NA,NA,NA,NA,NA,NA,NA,NA,OXFAM,NA,NA,NA,NA,NA,NA,NA,NA,NA
UGA,Uganda,Imvepi Settlement,UGA-UGAs004668-027,Unknown,3.2241,31.33023,NA,active,NA,NA,NA,NA,NA,NA,NA,NA,NA,NA,NA,NA,NA,NA,NA,NA,NA,NA,NA
UGA,Uganda,Palorinya,UGA-UGAs990101-005,Unknown,3.21543,31.99893,NA,active,NA,NA,NA,NA,NA,NA,NA,NA,NA,Base Camp,7/1/2019,7/28/2019,1,2,18,8,NA,666,120638
UGA,Uganda,Palorinya,UGA-UGAs990101-010,Unknown,3.22484,32.00697,NA,active,NA,NA,NA,NA,NA,NA,NA,NA,NA,Base Camp,6/3/2019,6/30/2019,1,2,8,8,7,656,118773
UGA,Uganda,Palorinya,UGA-UGAs990101-016,Unknown,3.12175,31.9611,NA,active,NA,NA,NA,NA,NA,NA,NA,NA,NA,Zone I,7/1/2019,7/28/2019,1,2,18,8,NA,666,120638
UGA,Uganda,Palorinya,UGA-UGAs990101-021,Unknown,3.12796,31.96801,NA,active,NA,NA,NA,NA,NA,NA,NA,NA,NA,Zone I,6/3/2019,6/30/2019,1,2,8,8,7,656,118773
UGA,Uganda,Palorinya,UGA-UGAs990101-027,Unknown,3.09409,31.95907,NA,active,NA,NA,NA,NA,NA,NA,NA,NA,NA,Zone I,7/1/2019,7/28/2019,1,2,18,8,NA,666,120638
UGA,Uganda,Palorinya,UGA-UGAs990101-032,Unknown,3.17004,31.98134,NA,active,NA,NA,NA,NA,NA,NA,NA,NA,NA,Zone I,6/3/2019,6/30/2019,1,2,8,8,7,656,118773
UGA,Uganda,Palorinya,UGA-UGAs990101-038,Unknown,3.12992,31.97051,NA,active,NA,NA,NA,NA,NA,NA,NA,NA,NA,Zone I,7/1/2019,7/28/2019,1,2,18,8,NA,666,120638
UGA,Uganda,Palorinya,UGA-UGAs990101-043,Unknown,3.14054,31.97142,NA,active,NA,NA,NA,NA,NA,NA,NA,NA,NA,Zone I,6/3/2019,6/30/2019,1,2,8,8,7,656,118773
UGA,Uganda,Palorinya,UGA-UGAs990101-049,Unknown,3.10557,31.9123,NA,active,NA,NA,NA,NA,NA,NA,NA,NA,NA,Zone II,7/1/2019,7/28/2019,1,2,18,8,NA,666,120638
UGA,Uganda,Palorinya,UGA-UGAs990101-054,Unknown,3.09143,31.90883,NA,active,NA,NA,NA,NA,NA,NA,NA,NA,NA,Zone II,6/3/2019,6/30/2019,1,2,8,8,7,656,118773
UGA,Uganda,Palorinya,UGA-UGAs990101-060,Unknown,3.0953,31.90791,NA,active,NA,NA,NA,NA,NA,NA,NA,NA,NA,Zone II,7/1/2019,7/28/2019,1,2,18,8,NA,666,120638
UGA,Uganda,Palorinya,UGA-UGAs990101-065,Unknown,3.08055,31.93725,NA,active,NA,NA,NA,NA,NA,NA,NA,NA,NA,Zone II,6/3/2019,6/30/2019,1,2,8,8,7,656,118773
UGA,Uganda,Palorinya,UGA-UGAs990101-071,Unknown,3.08213,31.912960000000002,NA,active,NA,NA,NA,NA,NA,NA,NA,NA,NA,Zone II,7/1/2019,7/28/2019,1,2,18,8,NA,666,120638
UGA,Uganda,Palorinya,UGA-UGAs990101-076,Unknown,3.07999,31.90974,NA,active,NA,NA,NA,NA,NA,NA,NA,NA,NA,Zone II,6/3/2019,6/30/2019,1,2,8,8,7,656,118773
UGA,Uganda,Palorinya,UGA-UGAs990101-082,Unknown,3.10323,31.88248,NA,active,NA,NA,NA,NA,NA,NA,NA,NA,NA,Zone III,7/1/2019,7/28/2019,1,2,18,8,NA,666,120638
UGA,Uganda,Palorinya,UGA-UGAs990101-087,Unknown,3.10737,31.88529,NA,active,NA,NA,NA,NA,NA,NA,NA,NA,NA,Zone III,6/3/2019,6/30/2019,1,2,8,8,7,656,118773
UGA,Uganda,Palorinya,UGA-UGAs990101-093,Unknown,3.0614,31.88014,NA,active,NA,NA,NA,NA,NA,NA,NA,NA,NA,Zone III,7/1/2019,7/28/2019,1,2,18,8,NA,666,120638
UGA,Uganda,Palorinya,UGA-UGAs990101-098,Unknown,3.05656,31.88707,NA,active,NA,NA,NA,NA,NA,NA,NA,NA,NA,Zone III,6/3/2019,6/30/2019,1,2,8,8,7,656,118773
UGA,Uganda,Palorinya,UGA-UGAs990101-104,Unknown,3.08641,31.90396,NA,active,NA,NA,NA,NA,NA,NA,NA,NA,NA,Zone III,7/1/2019,7/28/2019,1,2,18,8,NA,666,120638
UGA,Uganda,Palorinya,UGA-UGAs990101-000153,Unknown,3.41563,31.59986,633,active,1/3/2018,142,22.03,electrical_pump,NA,NA,5.1,NA,15-2-2018,"Dama, Palorinya, Moyo, Zone 2,Transmissivity:0.0000136179579085801",7/1/2019,7/28/2019,1,2,18,8,NA,666,120638
UGA,Uganda,Kyaka II,UGA-UGAs002986-000160,Unknown,0.33385,31.08322,1279,inactive,1/7/2018,119.7,2.35,hand_pump,NA,NA,2,NA,17-1-2018,"Kyaka, Open hole from 18.7 meters; Transmissivity: 0.00000294744 [m2/s]",6/3/2019,6/30/2019,NA,NA,8,8,14,NA,94567
UGA,Uganda,Bidibidi,UGA-UGAs027216-000164,Unknown,3.3755,31.08321,964,active,31-1-2018,116.1,3.65,electrical_pump,NA,NA,6.5,NA,NA,Koboko-Waji I; > 3 screen sections; Transmissivity:0.0000164126 [m2/s],NA,NA,NA,NA,NA,NA,NA,NA,NA
TCD,Chad,Farchana,TCD--000002,Unknown,13.3353,21.4827,NA,active,NA,38,3.45,electrical_pump,NA,26.05,9,14,7/2/2019,NA,1/1/2017,12/31/2017,NA,NA,NA,NA,NA,NA,NA
TCD,Chad,Touloum,TCD--000004,Unknown,14.5934,22.1632,NA,active,13-2-2019,52,16.62,electrical_pump,NA,NA,7,12,22-2-2019,NA,10/29/2018,12/2/2018,NA,294,14,13,14,4174,25046
TCD,Chad,Doholo,TCD--000006,Unknown,16.38022,8.0021,NA,active,11/3/2018,59,5.13,foot_pump,Vergnet HPV60,NA,3,12,NA,NA,12/3/2018,12/30/2018,554,NA,28,6,6,1330,6653
TCD,Chad,Doholo,TCD--000008,Unknown,16.37194,7.59197,NA,active,22-3-2018,50,5.23,foot_pump,Vergnet HPV62,NA,6,12,NA,NA,1/1/2018,12/31/2018,NA,NA,NA,NA,NA,NA,NA
TCD,Chad,Kaba,TCD--000014,Unknown,16.17536,7.44313,NA,active,16-4-2018,48,NA,foot_pump,Vergnet HPV68,NA,3,12,NA,NA,NA,NA,NA,NA,NA,NA,NA,NA,NA
TCD,Chad,Doholo,TCD--000018,Unknown,16.37546,8.00164,NA,active,16-3-2018,61,5.34,foot_pump,Vergnet HPV61,NA,5,12,NA,NA,1/1/2018,12/31/2018,NA,NA,NA,NA,NA,NA,NA
TCD,Chad,Beakoro,TCD--000020,Unknown,16.27355,7.51103,NA,active,25-3-2018,50,NA,foot_pump,Vergnet HPV63,NA,4,12,NA,NA,4/1/2019,4/28/2019,817,NA,14,26,38,NA,1634
